STARLINK-37665          
1 69238U 26117A   26177.53780682 -.00820138  00000+0 -62015-2 0  9996
2 69238  53.1572 196.7484 0009924 111.1836 249.0245 15.73916375  4453
STARLINK-37558          
1 69239U 26117B   26177.91501352 -.01088034  00000+0 -80637-2 0  9996
2 69239  53.1585 194.8316 0004681 335.3626  24.7170 15.74756156  4515
STARLINK-37680          
1 69240U 26117C   26177.34110824  .00450856  00000+0  21217-2 0  9996
2 69240  53.1548 197.6502 0021322 188.5651 171.5011 15.81079026  4428
STARLINK-37742          
1 69241U 26117D   26177.91209668 -.00133949  00000+0 -90088-3 0  9991
2 69241  53.1593 194.8138 0003013 354.0676   6.0308 15.74785005  4511
STARLINK-37718          
1 69242U 26117E   26177.40284694 -.00855024  00000+0 -57317-2 0  9990
2 69242  53.1572 197.3253 0004983 353.5259   6.5697 15.76827164  4435
STARLINK-37735          
1 69243U 26117F   26177.66303300 -.00803334  00000+0 -70315-2 0  9995
2 69243  53.1583 196.1061 0004263  18.9782 341.1395 15.70551148  4473
STARLINK-37757          
1 69244U 26117G   26177.91668981 -.02552262  00000+0 -21573-1 0  9997
2 69244  53.1593 194.7800 0000783  90.8095 300.2633 15.72387703  5747
STARLINK-37767          
1 69245U 26117H   26177.91668981 -.01929803  00000+0 -15529-1 0  9990
2 69245  53.1588 194.7170 0000787  94.9295 326.5147 15.73685713  5747
STARLINK-35759          
1 69246U 26117J   26177.91668981 -.02534016  00000+0 -20738-1 0  9998
2 69246  53.1591 194.6886 0001077  71.8153   3.2713 15.73107177  5791
STARLINK-37238          
1 69247U 26117K   26177.91668981 -.02497003  00000+0 -34019-1 0  9990
2 69247  53.1594 194.8953 0000936  94.2630 238.3683 15.60627199  5743
STARLINK-37412          
1 69248U 26117L   26176.37526339  .00272369  00000+0  13416-2 0  9991
2 69248  53.1570 202.2846 0002809  20.2449 339.8684 15.80853152  4278
STARLINK-37398          
1 69249U 26117M   26177.65662202 -.00304728  00000+0 -20704-2 0  9999
2 69249  53.1574 196.0618 0005098  32.0697 328.0632 15.75051068  4474
STARLINK-37499          
1 69250U 26117N   26177.91668981 -.02556543  00000+0 -26543-1 0  9992
2 69250  53.1591 194.7066 0001024  59.9717   5.3915 15.67506731  5814
STARLINK-37489          
1 69251U 26117P   26177.91668981 -.02489760  00000+0 -28492-1 0  9994
2 69251  53.1594 194.7402 0000930  89.4841 319.6351 15.65021274  5810
STARLINK-37434          
1 69252U 26117Q   26177.91668981 -.02411017  00000+0 -42951-1 0  9991
2 69252  53.1590 195.0402 0001298  88.4363 172.8834 15.53381910  5747
STARLINK-37368          
1 69253U 26117R   26177.91668981 -.02341011  00000+0 -18643-1 0  9999
2 69253  53.1585 194.4395 0001241  97.6750  97.0757 15.74033536  5817
STARLINK-37517          
1 69254U 26117S   26176.55098760 -.00329961  00000+0 -17761-2 0  9990
2 69254  53.1561 201.2378 0001745 205.3788 154.7149 15.80334140  4309
STARLINK-37378          
1 69255U 26117T   26176.86577038 -.00368798  00000+0 -21297-2 0  9995
2 69255  53.1568 199.6463 0001397 210.8925 149.2015 15.78901149  4351
STARLINK-37396          
1 69256U 26117U   26177.75094246 -.00888034  00000+0 -63995-2 0  9991
2 69256  53.1571 195.2091 0002082  25.1546 334.9576 15.75324102  4498
STARLINK-37508          
1 69257U 26117V   26177.91668981 -.02583065  00000+0 -20823-1 0  9993
2 69257  53.1587 194.4687 0001186  91.5141  87.8277 15.73520041  5749
STARLINK-37276          
1 69258U 26117W   26177.91668981  .00100421  00000+0  17953-2 0  9992
2 69258  53.1597 194.7813 0001691  56.9575 325.8703 15.49232205  5746
STARLINK-37518          
1 69259U 26117X   26177.91668981  .00103792  00000+0  18543-2 0  9993
2 69259  53.1597 194.7956 0001803  64.4280 311.4638 15.49235609  5757
STARLINK-37478          
1 69260U 26117Y   26177.91668981  .00081346  00000+0  14581-2 0  9993
2 69260  53.1594 195.3497 0001860  90.0118  12.8343 15.49256553  5757
STARLINK-37506          
1 69261U 26117Z   26177.91668981  .00088031  00000+0  15760-2 0  9992
2 69261  53.1594 194.9361 0001194  88.1557 218.7721 15.49256014  5757
STARLINK-37503          
1 69262U 26117AA  26177.91668981 -.02078908  00000+0 -37070-1 0  9996
2 69262  53.1593 194.6269 0000603 108.6726 349.8108 15.52809818  5756
STARLINK-37502          
1 69263U 26117AB  26177.91668981  .00095647  00000+0  17104-2 0  9999
2 69263  53.1596 194.8271 0000783  53.9103 305.7916 15.49248504  5758
STARLINK-37486          
1 69264U 26117AC  26177.91668981 -.02196015  00000+0 -30568-1 0  9993
2 69264  53.1588 194.5713 0001242  73.3079  52.7103 15.59600304  5755
STARLINK-37435          
1 69265U 26117AD  26177.74881049 -.00265915  00000+0 -27530-2 0  9997
2 69265  53.1592 195.1877 0002962 347.7311  12.3633 15.64870942  4499
STARLINK-37464          
1 69266U 26117AE  26177.67257724 -.01069661  00000+0 -10885-1 0  9992
2 69266  53.1595 195.4184 0001874   6.5693 353.5348 15.67270288  4483
KUIPER-00282            
1 69267U 26118A   26177.79803624 -.00051096  00000+0 -15373-2 0  9993
2 69267  51.8601   7.3062 0011868 222.0114 137.9962 15.33752875  5454
